{
 "generated_at": "2026-07-20T08:05:52Z",
 "sources": [
  {
   "name": "CelesTrak",
   "url": "https://celestrak.org/NORAD/elements/",
   "license": "frei verfügbar; Attribution. Ursprünglich USSPACECOM/Space-Track."
  },
  {
   "name": "GCAT (J. McDowell, planet4589.org)",
   "url": "https://planet4589.org/space/gcat/",
   "license": "CC-BY 4.0"
  }
 ],
 "satellites": [
  {
   "norad": 41875,
   "name": "GOKTURK 1A",
   "intl": "2016-073A",
   "group": "resource",
   "gcat": {
    "class": "D",
    "category": "IMG",
    "owner": "MSBTR",
    "state": "TR"
   },
   "omm": {
    "OBJECT_NAME": "GOKTURK 1A",
    "OBJECT_ID": "2016-073A",
    "EPOCH": "2026-07-19T20:58:50.386656",
    "MEAN_MOTION": 14.6279473,
    "ECCENTRICITY": 0.0001448,
    "INCLINATION": 98.1203,
    "RA_OF_ASC_NODE": 95.0299,
    "ARG_OF_PERICENTER": 81.2418,
    "MEAN_ANOMALY": 278.8948,
    "EPHEMERIS_TYPE": 0,
    "CLASSIFICATION_TYPE": "U",
    "NORAD_CAT_ID": 41875,
    "ELEMENT_SET_NO": 999,
    "REV_AT_EPOCH": 51360,
    "BSTAR": 0.000019734,
    "MEAN_MOTION_DOT": 5.4e-7,
    "MEAN_MOTION_DDOT": 0
   }
  },
  {
   "norad": 39030,
   "name": "GOKTURK 2",
   "intl": "2012-073A",
   "group": "resource",
   "gcat": {
    "class": "D",
    "category": "IMG",
    "owner": "MSBTR",
    "state": "TR"
   },
   "omm": {
    "OBJECT_NAME": "GOKTURK 2",
    "OBJECT_ID": "2012-073A",
    "EPOCH": "2026-07-19T20:01:09.868800",
    "MEAN_MOTION": 14.75570135,
    "ECCENTRICITY": 0.0001038,
    "INCLINATION": 97.6811,
    "RA_OF_ASC_NODE": 36.6275,
    "ARG_OF_PERICENTER": 100.9221,
    "MEAN_ANOMALY": 259.2106,
    "EPHEMERIS_TYPE": 0,
    "CLASSIFICATION_TYPE": "U",
    "NORAD_CAT_ID": 39030,
    "ELEMENT_SET_NO": 999,
    "REV_AT_EPOCH": 72932,
    "BSTAR": 0.000035982,
    "MEAN_MOTION_DOT": 0.00000198,
    "MEAN_MOTION_DDOT": 0
   }
  },
  {
   "norad": 33492,
   "name": "GOSAT (IBUKI)",
   "intl": "2009-002A",
   "group": "resource",
   "gcat": {
    "class": "C",
    "category": "EOSCI",
    "owner": "JAXA",
    "state": "J"
   },
   "omm": {
    "OBJECT_NAME": "GOSAT (IBUKI)",
    "OBJECT_ID": "2009-002A",
    "EPOCH": "2026-07-19T19:08:34.050912",
    "MEAN_MOTION": 14.67536148,
    "ECCENTRICITY": 0.0001196,
    "INCLINATION": 98.092,
    "RA_OF_ASC_NODE": 311.4745,
    "ARG_OF_PERICENTER": 93.2961,
    "MEAN_ANOMALY": 266.8381,
    "EPHEMERIS_TYPE": 0,
    "CLASSIFICATION_TYPE": "U",
    "NORAD_CAT_ID": 33492,
    "ELEMENT_SET_NO": 999,
    "REV_AT_EPOCH": 93624,
    "BSTAR": 0.000059208,
    "MEAN_MOTION_DOT": 0.00000288,
    "MEAN_MOTION_DDOT": 0
   }
  },
  {
   "norad": 64694,
   "name": "GOSAT-GW (IBUKI GW)",
   "intl": "2025-141A",
   "group": "resource",
   "gcat": {
    "class": "C",
    "category": "EOSCI",
    "owner": "JAXA",
    "state": "J"
   },
   "omm": {
    "OBJECT_NAME": "GOSAT-GW (IBUKI GW)",
    "OBJECT_ID": "2025-141A",
    "EPOCH": "2026-07-19T20:22:39.453600",
    "MEAN_MOTION": 14.67555537,
    "ECCENTRICITY": 0.0001448,
    "INCLINATION": 98.0564,
    "RA_OF_ASC_NODE": 137.6355,
    "ARG_OF_PERICENTER": 85.3356,
    "MEAN_ANOMALY": 274.8014,
    "EPHEMERIS_TYPE": 0,
    "CLASSIFICATION_TYPE": "U",
    "NORAD_CAT_ID": 64694,
    "ELEMENT_SET_NO": 999,
    "REV_AT_EPOCH": 5663,
    "BSTAR": 0.000047626,
    "MEAN_MOTION_DOT": 0.00000222,
    "MEAN_MOTION_DDOT": 0
   }
  },
  {
   "norad": 39574,
   "name": "GPM-CORE",
   "intl": "2014-009C",
   "group": "resource",
   "gcat": {
    "class": "C",
    "category": "EOSCI",
    "owner": "GSFC",
    "state": "US"
   },
   "omm": {
    "OBJECT_NAME": "GPM-CORE",
    "OBJECT_ID": "2014-009C",
    "EPOCH": "2026-07-19T20:03:43.386048",
    "MEAN_MOTION": 15.45075694,
    "ECCENTRICITY": 0.0010871,
    "INCLINATION": 64.9697,
    "RA_OF_ASC_NODE": 198.732,
    "ARG_OF_PERICENTER": 263.5327,
    "MEAN_ANOMALY": 96.4576,
    "EPHEMERIS_TYPE": 0,
    "CLASSIFICATION_TYPE": "U",
    "NORAD_CAT_ID": 39574,
    "ELEMENT_SET_NO": 999,
    "REV_AT_EPOCH": 70285,
    "BSTAR": 0.000075705,
    "MEAN_MOTION_DOT": 0.00003343,
    "MEAN_MOTION_DDOT": 0
   }
  },
  {
   "norad": 31113,
   "name": "HAIYANG-1B",
   "intl": "2007-010A",
   "group": "resource",
   "gcat": {
    "class": null,
    "category": null,
    "owner": null,
    "state": null
   },
   "omm": {
    "OBJECT_NAME": "HAIYANG-1B",
    "OBJECT_ID": "2007-010A",
    "EPOCH": "2026-07-19T19:08:19.574592",
    "MEAN_MOTION": 14.31034033,
    "ECCENTRICITY": 0.0014777,
    "INCLINATION": 98.3518,
    "RA_OF_ASC_NODE": 181.3815,
    "ARG_OF_PERICENTER": 103.2579,
    "MEAN_ANOMALY": 257.0254,
    "EPHEMERIS_TYPE": 0,
    "CLASSIFICATION_TYPE": "U",
    "NORAD_CAT_ID": 31113,
    "ELEMENT_SET_NO": 999,
    "REV_AT_EPOCH": 530,
    "BSTAR": 0.000030346,
    "MEAN_MOTION_DOT": 3.8e-7,
    "MEAN_MOTION_DDOT": 0
   }
  },
  {
   "norad": 37781,
   "name": "HAIYANG-2A",
   "intl": "2011-043A",
   "group": "resource",
   "gcat": {
    "class": null,
    "category": null,
    "owner": null,
    "state": null
   },
   "omm": {
    "OBJECT_NAME": "HAIYANG-2A",
    "OBJECT_ID": "2011-043A",
    "EPOCH": "2026-07-19T21:12:55.224000",
    "MEAN_MOTION": 13.7320487,
    "ECCENTRICITY": 0.0001954,
    "INCLINATION": 99.3406,
    "RA_OF_ASC_NODE": 202.8067,
    "ARG_OF_PERICENTER": 21.1552,
    "MEAN_ANOMALY": 338.9677,
    "EPHEMERIS_TYPE": 0,
    "CLASSIFICATION_TYPE": "U",
    "NORAD_CAT_ID": 37781,
    "ELEMENT_SET_NO": 999,
    "REV_AT_EPOCH": 75114,
    "BSTAR": -0.000088263,
    "MEAN_MOTION_DOT": -0.00000125,
    "MEAN_MOTION_DDOT": 0
   }
  },
  {
   "norad": 40267,
   "name": "HIMAWARI-8",
   "intl": "2014-060A",
   "group": "weather",
   "gcat": {
    "class": "C",
    "category": "MET",
    "owner": "JMA",
    "state": "J"
   },
   "omm": {
    "OBJECT_NAME": "HIMAWARI-8",
    "OBJECT_ID": "2014-060A",
    "EPOCH": "2026-07-19T18:48:38.666304",
    "MEAN_MOTION": 1.00270366,
    "ECCENTRICITY": 0.0001246,
    "INCLINATION": 0.0152,
    "RA_OF_ASC_NODE": 47.5152,
    "ARG_OF_PERICENTER": 115.273,
    "MEAN_ANOMALY": 197.5966,
    "EPHEMERIS_TYPE": 0,
    "CLASSIFICATION_TYPE": "U",
    "NORAD_CAT_ID": 40267,
    "ELEMENT_SET_NO": 999,
    "REV_AT_EPOCH": 4308,
    "BSTAR": 0,
    "MEAN_MOTION_DOT": -0.00000279,
    "MEAN_MOTION_DDOT": 0
   }
  },
  {
   "norad": 41836,
   "name": "HIMAWARI-9",
   "intl": "2016-064A",
   "group": "weather",
   "gcat": {
    "class": "C",
    "category": "MET",
    "owner": "JMA",
    "state": "J"
   },
   "omm": {
    "OBJECT_NAME": "HIMAWARI-9",
    "OBJECT_ID": "2016-064A",
    "EPOCH": "2026-07-19T18:48:38.666304",
    "MEAN_MOTION": 1.00275003,
    "ECCENTRICITY": 0.0002147,
    "INCLINATION": 0.0374,
    "RA_OF_ASC_NODE": 240.7556,
    "ARG_OF_PERICENTER": 289.6962,
    "MEAN_ANOMALY": 190.0063,
    "EPHEMERIS_TYPE": 0,
    "CLASSIFICATION_TYPE": "U",
    "NORAD_CAT_ID": 41836,
    "ELEMENT_SET_NO": 999,
    "REV_AT_EPOCH": 3553,
    "BSTAR": 0,
    "MEAN_MOTION_DOT": -0.00000278,
    "MEAN_MOTION_DDOT": 0
   }
  },
  {
   "norad": 40015,
   "name": "HODOYOSHI-3",
   "intl": "2014-033F",
   "group": "resource",
   "gcat": {
    "class": null,
    "category": null,
    "owner": null,
    "state": null
   },
   "omm": {
    "OBJECT_NAME": "HODOYOSHI-3",
    "OBJECT_ID": "2014-033F",
    "EPOCH": "2026-07-19T17:18:22.730688",
    "MEAN_MOTION": 14.85442279,
    "ECCENTRICITY": 0.0031417,
    "INCLINATION": 97.6452,
    "RA_OF_ASC_NODE": 2.459,
    "ARG_OF_PERICENTER": 246.2924,
    "MEAN_ANOMALY": 113.4994,
    "EPHEMERIS_TYPE": 0,
    "CLASSIFICATION_TYPE": "U",
    "NORAD_CAT_ID": 40015,
    "ELEMENT_SET_NO": 999,
    "REV_AT_EPOCH": 65245,
    "BSTAR": 0.000058668,
    "MEAN_MOTION_DOT": 0.00000457,
    "MEAN_MOTION_DDOT": 0
   }
  },
  {
   "norad": 40011,
   "name": "HODOYOSHI-4",
   "intl": "2014-033B",
   "group": "resource",
   "gcat": {
    "class": null,
    "category": null,
    "owner": null,
    "state": null
   },
   "omm": {
    "OBJECT_NAME": "HODOYOSHI-4",
    "OBJECT_ID": "2014-033B",
    "EPOCH": "2026-07-19T20:18:57.117888",
    "MEAN_MOTION": 14.88193059,
    "ECCENTRICITY": 0.0023038,
    "INCLINATION": 97.5462,
    "RA_OF_ASC_NODE": 24.0948,
    "ARG_OF_PERICENTER": 193.8455,
    "MEAN_ANOMALY": 166.2134,
    "EPHEMERIS_TYPE": 0,
    "CLASSIFICATION_TYPE": "U",
    "NORAD_CAT_ID": 40011,
    "ELEMENT_SET_NO": 999,
    "REV_AT_EPOCH": 65366,
    "BSTAR": 0.0000405,
    "MEAN_MOTION_DOT": 0.00000323,
    "MEAN_MOTION_DDOT": 0
   }
  },
  {
   "norad": 33320,
   "name": "HUANJING 1A (HJ-1A)",
   "intl": "2008-041A",
   "group": "resource",
   "gcat": {
    "class": null,
    "category": null,
    "owner": null,
    "state": null
   },
   "omm": {
    "OBJECT_NAME": "HUANJING 1A (HJ-1A)",
    "OBJECT_ID": "2008-041A",
    "EPOCH": "2026-07-19T20:49:41.196288",
    "MEAN_MOTION": 14.84056605,
    "ECCENTRICITY": 0.0020067,
    "INCLINATION": 97.6707,
    "RA_OF_ASC_NODE": 185.4468,
    "ARG_OF_PERICENTER": 35.3819,
    "MEAN_ANOMALY": 324.8723,
    "EPHEMERIS_TYPE": 0,
    "CLASSIFICATION_TYPE": "U",
    "NORAD_CAT_ID": 33320,
    "ELEMENT_SET_NO": 999,
    "REV_AT_EPOCH": 96325,
    "BSTAR": 0.00010637,
    "MEAN_MOTION_DOT": 0.00000838,
    "MEAN_MOTION_DDOT": 0
   }
  },
  {
   "norad": 33321,
   "name": "HUANJING 1B (HJ-1B)",
   "intl": "2008-041B",
   "group": "resource",
   "gcat": {
    "class": null,
    "category": null,
    "owner": null,
    "state": null
   },
   "omm": {
    "OBJECT_NAME": "HUANJING 1B (HJ-1B)",
    "OBJECT_ID": "2008-041B",
    "EPOCH": "2026-07-19T20:26:47.609088",
    "MEAN_MOTION": 14.83369227,
    "ECCENTRICITY": 0.0037943,
    "INCLINATION": 97.6541,
    "RA_OF_ASC_NODE": 188.5037,
    "ARG_OF_PERICENTER": 76.7372,
    "MEAN_ANOMALY": 283.807,
    "EPHEMERIS_TYPE": 0,
    "CLASSIFICATION_TYPE": "U",
    "NORAD_CAT_ID": 33321,
    "ELEMENT_SET_NO": 999,
    "REV_AT_EPOCH": 96325,
    "BSTAR": 0.000055803,
    "MEAN_MOTION_DOT": 0.00000411,
    "MEAN_MOTION_DDOT": 0
   }
  }
 ]
}
